ONEWEB-0385             
1 49311U 21090AJ  23325.89046470 -.00000365  00000+0 -92925-3 0  9998
2 49311  87.9178 101.2303 0001880  90.6468 269.4881 13.20771089107262
ONEWEB-0386             
1 49312U 21090AK  23325.83156557  .00000030  00000+0  42599-4 0  9991
2 49312  87.9171 101.2506 0001738  89.1863 270.9469 13.20771057105953
ONEWEB-0387             
1 49313U 21090AL  23325.89257986  .00000019  00000+0  14353-4 0  9990
2 49313  87.9177 101.2874 0001915  99.4337 260.7013 13.20767828107275
ONEWEB-0388             
1 49314U 21090AM  23325.87176807  .00000090  00000+0  19332-3 0  9991
2 49314  87.9168 131.7409 0001566  84.5988 275.5324 13.19727103102653
ONEWEB-0389             
1 50469U 21132A   23325.70291312 -.00000001  00000+0 -36803-4 0  9999
2 50469  87.9237 192.4139 0002030  85.5753 274.5611 13.17648899 94497
ONEWEB-0390             
1 50470U 21132B   23325.70501620  .00000070  00000+0  14601-3 0  9992
2 50470  87.9239 192.4211 0001611  94.2808 265.8507 13.17648658 94494
ONEWEB-0391             
1 50471U 21132C   23326.16274298  .00000120  00000+0  27509-3 0  9999
2 50471  87.9236 192.3010 0001824  80.8384 279.2954 13.17646615 95840
ONEWEB-0392             
1 50472U 21132D   23326.11634656  .00000027  00000+0  37046-4 0  9997
2 50472  87.9225 192.3406 0001864  84.7002 275.4342 13.17651130 95872
